{
    "links": {
        "self": "http://www.neowsapp.com/rest/v1/neo/3781910?api_key=iIulBulltgU6a56xZRHN4H3l9WmuAYTsLGpBGhQ2"
    },
    "id": "3781910",
    "neo_reference_id": "3781910",
    "name": "(2017 SR17)",
    "designation": "2017 SR17",
    "nasa_jpl_url": "http://ssd.jpl.nasa.gov/sbdb.cgi?sstr=3781910",
    "absolute_magnitude_h": 18.8,
    "estimated_diameter": {
        "kilometers": {
            "estimated_diameter_min": 0.4619074603,
            "estimated_diameter_max": 1.0328564805
        },
        "meters": {
            "estimated_diameter_min": 461.9074602816,
            "estimated_diameter_max": 1032.8564805039
        },
        "miles": {
            "estimated_diameter_min": 0.2870159005,
            "estimated_diameter_max": 0.6417870641
        },
        "feet": {
            "estimated_diameter_min": 1515.4444719902,
            "estimated_diameter_max": 3388.6368554964
        }
    },
    "is_potentially_hazardous_asteroid": false,
    "close_approach_data": [
        {
            "close_approach_date": "2017-10-29",
            "close_approach_date_full": "2017-Oct-29 03:50",
            "epoch_date_close_approach": 1509249000000,
            "relative_velocity": {
                "kilometers_per_second": "32.6940568869",
                "kilometers_per_hour": "117698.6047929124",
                "miles_per_hour": "73133.3358503516"
            },
            "miss_distance": {
                "astronomical": "0.4253569705",
                "lunar": "165.4638615245",
                "kilometers": "63632496.776452835",
                "miles": "39539400.030545723"
            },
            "orbiting_body": "Earth"
        }
    ],
    "orbital_data": {
        "orbit_id": "5",
        "orbit_determination_date": "2019-12-21 06:02:37",
        "first_observation_date": "2017-09-25",
        "last_observation_date": "2017-10-27",
        "data_arc_in_days": 32,
        "observations_used": 29,
        "orbit_uncertainty": "7",
        "minimum_orbit_intersection": ".372821",
        "jupiter_tisserand_invariant": "2.625",
        "epoch_osculation": "2459000.5",
        "eccentricity": ".8957434068119642",
        "semi_major_axis": "2.497976952182888",
        "inclination": "28.43911240161726",
        "ascending_node_longitude": "155.7160767600874",
        "orbital_period": "1442.052485320834",
        "perihelion_distance": ".2604305668968209",
        "perihelion_argument": "5.699302952051341",
        "aphelion_distance": "4.735523337468954",
        "perihelion_time": "2459535.151391690532",
        "mean_anomaly": "226.5273955227996",
        "mean_motion": ".2496441729164287",
        "equinox": "J2000",
        "orbit_class": {
            "orbit_class_type": "APO",
            "orbit_class_description": "Near-Earth asteroid orbits which cross the Earth’s orbit similar to that of 1862 Apollo",
            "orbit_class_range": "a (semi-major axis) > 1.0 AU; q (perihelion) < 1.017 AU"
        }
    },
    "is_sentry_object": false
}